ONEWEB-0410             
1 51622U 22012A   23290.48750438 -.00000008  00000+0 -53997-4 0  9994
2 51622  87.9196 199.3895 0002172 109.3834 250.7532 13.17649065 85472
ONEWEB-0411             
1 51623U 22012B   23290.53142378  .00000324  00000+0  89215-3 0  9999
2 51623  87.8893 229.5970 0001602  73.5787 286.5516 13.10370921 81775
ONEWEB-0415             
1 51624U 22012C   23290.52818153  .00000293  00000+0  80260-3 0  9996
2 51624  87.8896 229.6252 0001718  71.4232 288.7082 13.10371106 81771
ONEWEB-0416             
1 51625U 22012D   23290.53953913 -.00000044  00000+0 -16366-3 0  9994
2 51625  87.8897 229.6095 0001953  73.8085 286.3257 13.10371187 81813
ONEWEB-0422             
1 51626U 22012E   23290.49593781  .00000018  00000+0  13629-4 0  9992
2 51626  87.9194 199.3826 0002466  59.2388 300.8986 13.17652056 85587
ONEWEB-0423             
1 51627U 22012F   23290.48962505 -.00000072  00000+0 -21979-3 0  9994
2 51627  87.9256 199.3515 0001914  75.1258 285.0085 13.17648213 85474
ONEWEB-0425             
1 51628U 22012G   23290.39656491 -.00000498  00000+0 -14621-2 0  9996
2 51628  87.8895 229.6293 0002308  86.3762 273.7629 13.10372012 81798
ONEWEB-0428             
1 51629U 22012H   23290.52980010  .00000369  00000+0  10198-2 0  9999
2 51629  87.8893 229.6148 0001985  65.8120 294.3215 13.10372029 81772
